[{"OBJECT_NAME":"ONEWEB-0288","OBJECT_ID":"2021-075D","EPOCH":"2026-03-09T20:01:16.632192","MEAN_MOTION":13.12441591,"ECCENTRICITY":0.00018803,"INCLINATION":87.9003,"RA_OF_ASC_NODE":10.3741,"ARG_OF_PERICENTER":77.1612,"MEAN_ANOMALY":282.9727,"EPHEMERIS_TYPE":0,"CLASSIFICATION_TYPE":"U","NORAD_CAT_ID":49078,"ELEMENT_SET_NO":999,"REV_AT_EPOCH":22215,"BSTAR":0.00077625793,"MEAN_MOTION_DOT":2.92e-6,"MEAN_MOTION_DDOT":0},{"OBJECT_NAME":"CZ-4C DEB","OBJECT_ID":"2015-040D","EPOCH":"2026-03-08T09:58:09.156864","MEAN_MOTION":13.22572388,"ECCENTRICITY":0.01417404,"INCLINATION":100.1866,"RA_OF_ASC_NODE":142.2067,"ARG_OF_PERICENTER":40.5742,"MEAN_ANOMALY":320.5838,"EPHEMERIS_TYPE":0,"CLASSIFICATION_TYPE":"U","NORAD_CAT_ID":43425,"ELEMENT_SET_NO":999,"REV_AT_EPOCH":50722,"BSTAR":0.00033161309,"MEAN_MOTION_DOT":1.03e-6,"MEAN_MOTION_DDOT":0}]
